[{"OBJECT_NAME":"STARLINK-1452","OBJECT_ID":"2020-035N","EPOCH":"2026-03-09T03:54:47.994336","MEAN_MOTION":15.44914586,"ECCENTRICITY":0.00080076,"INCLINATION":53.0334,"RA_OF_ASC_NODE":24.2429,"ARG_OF_PERICENTER":52.8149,"MEAN_ANOMALY":307.3586,"EPHEMERIS_TYPE":0,"CLASSIFICATION_TYPE":"U","NORAD_CAT_ID":45669,"ELEMENT_SET_NO":999,"REV_AT_EPOCH":31928,"BSTAR":0.0019010434,"MEAN_MOTION_DOT":0.0009155,"MEAN_MOTION_DDOT":0},{"OBJECT_NAME":"PSLV DEB","OBJECT_ID":"2001-049CZ","EPOCH":"2026-03-09T20:21:52.655904","MEAN_MOTION":15.47930322,"ECCENTRICITY":0.00098925,"INCLINATION":97.8179,"RA_OF_ASC_NODE":167.4173,"ARG_OF_PERICENTER":98.6483,"MEAN_ANOMALY":261.5887,"EPHEMERIS_TYPE":0,"CLASSIFICATION_TYPE":"U","NORAD_CAT_ID":27153,"ELEMENT_SET_NO":999,"REV_AT_EPOCH":31609,"BSTAR":0.001262221,"MEAN_MOTION_DOT":0.0006629,"MEAN_MOTION_DDOT":0}]
